ONEWEB-0168             
1 48068U 21025AC  23338.96517613 -.00000193  00000+0 -56295-3 0  9997
2 48068  87.8908 144.3278 0001623  94.0853 266.0461 13.13472574132107
ONEWEB-0173             
1 48069U 21025AD  23339.03342321 -.00000840  00000+0 -23342-2 0  9994
2 48069  87.8908 144.3311 0001947 109.7596 250.3743 13.13470373132354
ONEWEB-0171             
1 48070U 21025AE  23339.45081991  .00002129  00000+0  57959-2 0  9996
2 48070  87.8977 144.2787 0001961  76.1002 284.0345 13.13455559132220
ONEWEB-0172             
1 48071U 21025AF  23339.50637345  .00000350  00000+0  92299-3 0  9994
2 48071  87.8974 144.2341 0001546 105.8849 254.2451 13.13475598133124
ONEWEB-0174             
1 48072U 21025AG  23338.49862264  .00000074  00000+0  16757-3 0  9990
2 48072  87.8975 144.4493 0001643  84.9327 275.1989 13.13473103132310
ONEWEB-0175             
1 48073U 21025AH  23338.52715128  .00000499  00000+0  13322-2 0  9996
2 48073  87.8977 144.4407 0001227 109.0475 251.0787 13.13465739131975
ONEWEB-0177             
1 48074U 21025AJ  23338.53984705 -.00000140  00000+0 -41904-3 0  9990
2 48074  87.8982 144.4422 0001976 101.0027 259.1325 13.13463230132168
ONEWEB-0178             
1 48075U 21025AK  23339.47148237 -.00001901  00000+0 -52418-2 0  9994
2 48075  87.8992 144.2620 0001522  90.8505 269.2799 13.13452496132339
